2026-07-16 10:12:43,234 - main - INFO - Configuration C:\Users\Michel Tossaint\OneDrive - ESA\Documents\86 - Ipython Notebooks\SatSVS\tests\orb_collision_check\Config.xml validated: 0 warning(s), no errors
2026-07-16 10:12:43,235 - main - INFO - {'constellation_id': 1, 'constellation_name': 'Sentinel-1A', 'num_sat': 1, 'num_planes': 1, 'rx_constellation': '1', 'elevation_mask': [], 'el_mask_max': [], 'uere_list': [], 'tle_file_name': '../tests/orb_collision_check/mission_tle.txt', 'obs_inci_angle_start': None, 'obs_inci_angle_stop': None, 'obs_swath_start': None, 'obs_swath_stop': None, 'frontal_area': None, 'mass': None}
2026-07-16 10:12:43,253 - main - INFO - ['Found satellite:', '39634', 'Kepler Elements', "{'epoch_mjd': 61236.9617613, 'semi_major_axis': 7073927.613023457, 'eccentricity': 0.0001404, 'inclination': 1.713494446437953, 'right_ascension': 3.5617632177149083, 'arg_perigee': 1.507266342022303, 'mean_anomaly': 4.7782751596474755}"]
2026-07-16 10:12:45,538 - main - INFO - {'constellation_id': 1, 'station_id': 1, 'station_name': 'Svalbard', 'rx_constellation': '1', 'elevation_mask': [0.08726646259971647], 'el_mask_max': [1.5707963267948966], 'pos_eci': array([0., 0., 0.]), 'vel_eci': array([0., 0., 0.]), 'pos_ecf': array([1254944.19262441,  481104.81267317, 6214020.08271524]), 'vel_ecf': array([0., 0., 0.]), 'lla': array([1.35917515, 0.3660863 , 0.        ]), 'idx_sat_in_view': []}
2026-07-16 10:12:45,539 - main - INFO - {'type': 'Static', 'user_id': 0, 'rx_constellation': '1', 'name': '', 'ltan': -1, 'sso_raan_ref': None, 'sso_raan_ref_mjd': 0.0, 'elevation_mask': [0.08726646259971647], 'el_mask_max': [1.5707963267948966], 'pos_eci': array([0., 0., 0.]), 'vel_eci': array([0., 0., 0.]), 'pos_ecf': array([3923572.96352912,  299147.24517876, 5002803.34543355]), 'vel_ecf': array([0., 0., 0.]), 'norm_ecf': 0, 'lla': array([0.90757121, 0.07609636, 0.        ]), 'num_lat': 0, 'num_lon': 0, 'idx_sat_in_view': [], 'tle_file_name': '', 'kepler': <segments.KeplerSet object at 0x000001D0EB050190>}
2026-07-16 10:12:45,542 - main - INFO - Loaded simulation, start MJD: 61236.0, stop MJD: 61237.0, size time steps in sec: 300.0
2026-07-16 10:12:45,542 - main - INFO - Loaded 1 number of Station to Spacecraft links
2026-07-16 10:12:45,542 - main - INFO - Loaded 1 number of User to Spacecraft links
2026-07-16 10:12:45,542 - main - INFO - Loaded 1 number of Spacecraft to Spacecraft links
2026-07-16 10:12:45,574 - main - INFO - orb_collision_check: 265 catalog objects, 162 pass the apogee/perigee sieve around 695-697 km (margin 20 km)
2026-07-16 10:12:45,574 - main - INFO - Finished reading configuration file
2026-07-16 10:12:45,579 - main - INFO - Simulation time: 2026-07-15 00:00:00, time step: 0
2026-07-16 10:12:46,521 - main - INFO - Simulation time: 2026-07-15 08:20:00, time step: 100
2026-07-16 10:12:46,524 - main - INFO - Simulation time: 2026-07-15 16:40:00, time step: 200
2026-07-16 10:12:46,526 - main - INFO - Plotting analysis orb_collision_check
2026-07-16 10:12:46,807 - main - INFO - orb_collision_check: CENTISPACE-2 S10 (NORAD 68359): miss 4.01 km at DOY 196.3343, relative velocity 10.4 km/s, altitude 707 km
2026-07-16 10:12:46,807 - main - INFO - orb_collision_check: SJ-11-01 (NORAD 36088): miss 8.46 km at DOY 196.4306, relative velocity 3.5 km/s, altitude 680 km
2026-07-16 10:12:46,807 - main - INFO - orb_collision_check: 2 conjunction(s) below 10.0 km over 1.0 day(s), 162 screened objects
2026-07-16 10:12:46,832 - main - INFO - Written data dump orb_collision_check_candidates.csv (162 rows)
2026-07-16 10:12:46,834 - main - INFO - Written data dump orb_collision_check.csv (2 rows)
